STARLINK-36688          
1 67656U 26022J   26039.16668981 -.01603597  79761-3 -29682-2 0  9992
2 67656  97.2822  71.5379 0001036  71.9933 214.8513 16.01266068  2143
STARLINK-36706          
1 67657U 26022K   26039.16668981 -.01605819  80115-3 -29451-2 0  9991
2 67657  97.2820  71.5384 0001150  73.1331 215.4206 16.01425948  2118
STARLINK-36701          
1 67658U 26022L   26039.16668981 -.01591297  78924-3 -28900-2 0  9999
2 67658  97.2821  71.5398 0001091  75.0449 215.3634 16.01594649  2142
STARLINK-36642          
1 67659U 26022M   26039.16668981 -.01595983  79474-3 -28777-2 0  9999
2 67659  97.2822  71.5404 0001100  68.9003 222.9366 16.01720024  2144
STARLINK-36673          
1 67660U 26022N   26039.16668981 -.01587324  78826-3 -28343-2 0  9990
2 67660  97.2817  71.5408 0001101  66.8516 226.8235 16.01888017  2146
STARLINK-36674          
1 67661U 26022P   26039.16668981 -.01560137  76427-3 -27673-2 0  9994
2 67661  97.2819  71.5415 0001034  78.1929 216.9178 16.01999256  2140
STARLINK-36700          
1 67662U 26022Q   26039.16668981 -.01549304  75723-3 -26974-2 0  9999
2 67662  97.2816  71.5430 0001024  71.4314 227.1700 16.02318116  2144
STARLINK-36675          
1 67663U 26022R   26039.16668981 -.01555068  76108-3 -27326-2 0  9994
2 67663  97.2816  71.5422 0001067  68.2180 228.6542 16.02160095  2149
STARLINK-36404          
1 67664U 26022S   26039.16668981 -.01558620  76725-3 -26874-2 0  9994
2 67664  97.2811  71.5433 0001047  75.3434 225.0092 16.02486252  2110
STARLINK-36399          
1 67665U 26022T   26039.16668981 -.01546145  75681-3 -26489-2 0  9996
2 67665  97.2812  71.5442 0001024  70.1092 231.6002 16.02593882  2112
STARLINK-36365          
1 67666U 26022U   26039.16668981 -.01554869  76650-3 -26346-2 0  9998
2 67666  97.2813  71.5452 0001073  66.9093 236.6990 16.02784196  2147
STARLINK-36622          
1 67667U 26022V   26039.16668981 -.01520682  73698-3 -25489-2 0  9991
2 67667  97.2812  71.5458 0000945  72.9515 232.6343 16.02964582  2143
