CCSDS_OMM_VERS = 2.0
CREATION_DATE  = 
ORIGINATOR     = 

OBJECT_NAME    = STARLINK-36688
OBJECT_ID      = 2026-022J
CENTER_NAME    = EARTH
REF_FRAME      = TEME
TIME_SYSTEM    = UTC
MEAN_ELEMENT_THEORY = SGP/SGP4

EPOCH          = 2026-02-08T04:00:01.999584
MEAN_MOTION    = 16.01266068
ECCENTRICITY   = .0001036
INCLINATION    = 97.2822
RA_OF_ASC_NODE = 71.5379
ARG_OF_PERICENTER = 71.9933
MEAN_ANOMALY   = 214.8513

EPHEMERIS_TYPE = 0
CLASSIFICATION_TYPE = U
NORAD_CAT_ID   = 67656
ELEMENT_SET_NO = 999
REV_AT_EPOCH   = 214
BSTAR          = -.29682E-2
MEAN_MOTION_DOT = -.1603597E-1
MEAN_MOTION_DDOT = .79761E-3

CCSDS_OMM_VERS = 2.0
CREATION_DATE  = 
ORIGINATOR     = 

OBJECT_NAME    = STARLINK-36706
OBJECT_ID      = 2026-022K
CENTER_NAME    = EARTH
REF_FRAME      = TEME
TIME_SYSTEM    = UTC
MEAN_ELEMENT_THEORY = SGP/SGP4

EPOCH          = 2026-02-08T04:00:01.999584
MEAN_MOTION    = 16.01425948
ECCENTRICITY   = .000115
INCLINATION    = 97.2820
RA_OF_ASC_NODE = 71.5384
ARG_OF_PERICENTER = 73.1331
MEAN_ANOMALY   = 215.4206

EPHEMERIS_TYPE = 0
CLASSIFICATION_TYPE = U
NORAD_CAT_ID   = 67657
ELEMENT_SET_NO = 999
REV_AT_EPOCH   = 211
BSTAR          = -.29451E-2
MEAN_MOTION_DOT = -.1605819E-1
MEAN_MOTION_DDOT = .80115E-3

CCSDS_OMM_VERS = 2.0
CREATION_DATE  = 
ORIGINATOR     = 

OBJECT_NAME    = STARLINK-36701
OBJECT_ID      = 2026-022L
CENTER_NAME    = EARTH
REF_FRAME      = TEME
TIME_SYSTEM    = UTC
MEAN_ELEMENT_THEORY = SGP/SGP4

EPOCH          = 2026-02-08T04:00:01.999584
MEAN_MOTION    = 16.01594649
ECCENTRICITY   = .0001091
INCLINATION    = 97.2821
RA_OF_ASC_NODE = 71.5398
ARG_OF_PERICENTER = 75.0449
MEAN_ANOMALY   = 215.3634

EPHEMERIS_TYPE = 0
CLASSIFICATION_TYPE = U
NORAD_CAT_ID   = 67658
ELEMENT_SET_NO = 999
REV_AT_EPOCH   = 214
BSTAR          = -.289E-2
MEAN_MOTION_DOT = -.1591297E-1
MEAN_MOTION_DDOT = .78924E-3

CCSDS_OMM_VERS = 2.0
CREATION_DATE  = 
ORIGINATOR     = 

OBJECT_NAME    = STARLINK-36642
OBJECT_ID      = 2026-022M
CENTER_NAME    = EARTH
REF_FRAME      = TEME
TIME_SYSTEM    = UTC
MEAN_ELEMENT_THEORY = SGP/SGP4

EPOCH          = 2026-02-08T04:00:01.999584
MEAN_MOTION    = 16.01720024
ECCENTRICITY   = .00011
INCLINATION    = 97.2822
RA_OF_ASC_NODE = 71.5404
ARG_OF_PERICENTER = 68.9003
MEAN_ANOMALY   = 222.9366

EPHEMERIS_TYPE = 0
CLASSIFICATION_TYPE = U
NORAD_CAT_ID   = 67659
ELEMENT_SET_NO = 999
REV_AT_EPOCH   = 214
BSTAR          = -.28777E-2
MEAN_MOTION_DOT = -.1595983E-1
MEAN_MOTION_DDOT = .79474E-3

CCSDS_OMM_VERS = 2.0
CREATION_DATE  = 
ORIGINATOR     = 

OBJECT_NAME    = STARLINK-36673
OBJECT_ID      = 2026-022N
CENTER_NAME    = EARTH
REF_FRAME      = TEME
TIME_SYSTEM    = UTC
MEAN_ELEMENT_THEORY = SGP/SGP4

EPOCH          = 2026-02-08T04:00:01.999584
MEAN_MOTION    = 16.01888017
ECCENTRICITY   = .0001101
INCLINATION    = 97.2817
RA_OF_ASC_NODE = 71.5408
ARG_OF_PERICENTER = 66.8516
MEAN_ANOMALY   = 226.8235

EPHEMERIS_TYPE = 0
CLASSIFICATION_TYPE = U
NORAD_CAT_ID   = 67660
ELEMENT_SET_NO = 999
REV_AT_EPOCH   = 214
BSTAR          = -.28343E-2
MEAN_MOTION_DOT = -.1587324E-1
MEAN_MOTION_DDOT = .78826E-3

CCSDS_OMM_VERS = 2.0
CREATION_DATE  = 
ORIGINATOR     = 

OBJECT_NAME    = STARLINK-36674
OBJECT_ID      = 2026-022P
CENTER_NAME    = EARTH
REF_FRAME      = TEME
TIME_SYSTEM    = UTC
MEAN_ELEMENT_THEORY = SGP/SGP4

EPOCH          = 2026-02-08T04:00:01.999584
MEAN_MOTION    = 16.01999256
ECCENTRICITY   = .0001034
INCLINATION    = 97.2819
RA_OF_ASC_NODE = 71.5415
ARG_OF_PERICENTER = 78.1929
MEAN_ANOMALY   = 216.9178

EPHEMERIS_TYPE = 0
CLASSIFICATION_TYPE = U
NORAD_CAT_ID   = 67661
ELEMENT_SET_NO = 999
REV_AT_EPOCH   = 214
BSTAR          = -.27673E-2
MEAN_MOTION_DOT = -.1560137E-1
MEAN_MOTION_DDOT = .76427E-3

CCSDS_OMM_VERS = 2.0
CREATION_DATE  = 
ORIGINATOR     = 

OBJECT_NAME    = STARLINK-36700
OBJECT_ID      = 2026-022Q
CENTER_NAME    = EARTH
REF_FRAME      = TEME
TIME_SYSTEM    = UTC
MEAN_ELEMENT_THEORY = SGP/SGP4

EPOCH          = 2026-02-08T04:00:01.999584
MEAN_MOTION    = 16.02318116
ECCENTRICITY   = .0001024
INCLINATION    = 97.2816
RA_OF_ASC_NODE = 71.5430
ARG_OF_PERICENTER = 71.4314
MEAN_ANOMALY   = 227.1700

EPHEMERIS_TYPE = 0
CLASSIFICATION_TYPE = U
NORAD_CAT_ID   = 67662
ELEMENT_SET_NO = 999
REV_AT_EPOCH   = 214
BSTAR          = -.26974E-2
MEAN_MOTION_DOT = -.1549304E-1
MEAN_MOTION_DDOT = .75723E-3

CCSDS_OMM_VERS = 2.0
CREATION_DATE  = 
ORIGINATOR     = 

OBJECT_NAME    = STARLINK-36675
OBJECT_ID      = 2026-022R
CENTER_NAME    = EARTH
REF_FRAME      = TEME
TIME_SYSTEM    = UTC
MEAN_ELEMENT_THEORY = SGP/SGP4

EPOCH          = 2026-02-08T04:00:01.999584
MEAN_MOTION    = 16.02160095
ECCENTRICITY   = .0001067
INCLINATION    = 97.2816
RA_OF_ASC_NODE = 71.5422
ARG_OF_PERICENTER = 68.2180
MEAN_ANOMALY   = 228.6542

EPHEMERIS_TYPE = 0
CLASSIFICATION_TYPE = U
NORAD_CAT_ID   = 67663
ELEMENT_SET_NO = 999
REV_AT_EPOCH   = 214
BSTAR          = -.27326E-2
MEAN_MOTION_DOT = -.1555068E-1
MEAN_MOTION_DDOT = .76108E-3

CCSDS_OMM_VERS = 2.0
CREATION_DATE  = 
ORIGINATOR     = 

OBJECT_NAME    = STARLINK-36404
OBJECT_ID      = 2026-022S
CENTER_NAME    = EARTH
REF_FRAME      = TEME
TIME_SYSTEM    = UTC
MEAN_ELEMENT_THEORY = SGP/SGP4

EPOCH          = 2026-02-08T04:00:01.999584
MEAN_MOTION    = 16.02486252
ECCENTRICITY   = .0001047
INCLINATION    = 97.2811
RA_OF_ASC_NODE = 71.5433
ARG_OF_PERICENTER = 75.3434
MEAN_ANOMALY   = 225.0092

EPHEMERIS_TYPE = 0
CLASSIFICATION_TYPE = U
NORAD_CAT_ID   = 67664
ELEMENT_SET_NO = 999
REV_AT_EPOCH   = 211
BSTAR          = -.26874E-2
MEAN_MOTION_DOT = -.155862E-1
MEAN_MOTION_DDOT = .76725E-3

CCSDS_OMM_VERS = 2.0
CREATION_DATE  = 
ORIGINATOR     = 

OBJECT_NAME    = STARLINK-36399
OBJECT_ID      = 2026-022T
CENTER_NAME    = EARTH
REF_FRAME      = TEME
TIME_SYSTEM    = UTC
MEAN_ELEMENT_THEORY = SGP/SGP4

EPOCH          = 2026-02-08T04:00:01.999584
MEAN_MOTION    = 16.02593882
ECCENTRICITY   = .0001024
INCLINATION    = 97.2812
RA_OF_ASC_NODE = 71.5442
ARG_OF_PERICENTER = 70.1092
MEAN_ANOMALY   = 231.6002

EPHEMERIS_TYPE = 0
CLASSIFICATION_TYPE = U
NORAD_CAT_ID   = 67665
ELEMENT_SET_NO = 999
REV_AT_EPOCH   = 211
BSTAR          = -.26489E-2
MEAN_MOTION_DOT = -.1546145E-1
MEAN_MOTION_DDOT = .75681E-3

CCSDS_OMM_VERS = 2.0
CREATION_DATE  = 
ORIGINATOR     = 

OBJECT_NAME    = STARLINK-36365
OBJECT_ID      = 2026-022U
CENTER_NAME    = EARTH
REF_FRAME      = TEME
TIME_SYSTEM    = UTC
MEAN_ELEMENT_THEORY = SGP/SGP4

EPOCH          = 2026-02-08T04:00:01.999584
MEAN_MOTION    = 16.02784196
ECCENTRICITY   = .0001073
INCLINATION    = 97.2813
RA_OF_ASC_NODE = 71.5452
ARG_OF_PERICENTER = 66.9093
MEAN_ANOMALY   = 236.6990

EPHEMERIS_TYPE = 0
CLASSIFICATION_TYPE = U
NORAD_CAT_ID   = 67666
ELEMENT_SET_NO = 999
REV_AT_EPOCH   = 214
BSTAR          = -.26346E-2
MEAN_MOTION_DOT = -.1554869E-1
MEAN_MOTION_DDOT = .7665E-3

CCSDS_OMM_VERS = 2.0
CREATION_DATE  = 
ORIGINATOR     = 

OBJECT_NAME    = STARLINK-36622
OBJECT_ID      = 2026-022V
CENTER_NAME    = EARTH
REF_FRAME      = TEME
TIME_SYSTEM    = UTC
MEAN_ELEMENT_THEORY = SGP/SGP4

EPOCH          = 2026-02-08T04:00:01.999584
MEAN_MOTION    = 16.02964582
ECCENTRICITY   = .0000945
INCLINATION    = 97.2812
RA_OF_ASC_NODE = 71.5458
ARG_OF_PERICENTER = 72.9515
MEAN_ANOMALY   = 232.6343

EPHEMERIS_TYPE = 0
CLASSIFICATION_TYPE = U
NORAD_CAT_ID   = 67667
ELEMENT_SET_NO = 999
REV_AT_EPOCH   = 214
BSTAR          = -.25489E-2
MEAN_MOTION_DOT = -.1520682E-1
MEAN_MOTION_DDOT = .73698E-3

